{"type":"FeatureCollection","features":[{"type":"Feature","geometry":{"type":"Point","coordinates":[81.7889,19.2967]},"properties":{"gauge_id":"03002","GHI_STN_ID":"goda_ambab","CWC_SITE_N":"Ambabal","RIV_BASIN":"Godavari","CWC_RIVER":"Godavari/Indravati/Narangi"}},{"type":"Feature","geometry":{"type":"Point","coordinates":[79.7856,19.6867]},"properties":{"gauge_id":"03005","GHI_STN_ID":"goda_ashti","CWC_SITE_N":"Ashti","RIV_BASIN":"Godavari","CWC_RIVER":"Godavari/Pranhita/Wainganga"}},{"type":"Feature","geometry":{"type":"Point","coordinates":[79.3794,19.8139]},"properties":{"gauge_id":"03008","GHI_STN_ID":"goda_bamni","CWC_SITE_N":"Bamni","RIV_BASIN":"Godavari","CWC_RIVER":"Godavari/Pranhita/Wardha"}},{"type":"Feature","geometry":{"type":"Point","coordinates":[77.545,18.705]},"properties":{"gauge_id":"03009","GHI_STN_ID":"goda_betmo","CWC_SITE_N":"Betmogrra","RIV_BASIN":"Godavari","CWC_RIVER":"Godavari/Manjira/Manar"}},{"type":"Feature","geometry":{"type":"Point","coordinates":[79.5042,19.3303]},"properties":{"gauge_id":"03013","GHI_STN_ID":"goda_bhatp","CWC_SITE_N":"Bhatpalli","RIV_BASIN":"Godavari","CWC_RIVER":"Godavari/Pranhita/Peddavagu"}},{"type":"Feature","geometry":{"type":"Point","coordinates":[78.1331,21.1072]},"properties":{"gauge_id":"03014","GHI_STN_ID":"goda_bhisn","CWC_SITE_N":"Bhisnur","RIV_BASIN":"Godavari","CWC_RIVER":"Godavari/Pranhita/Wardha"}},{"type":"Feature","geometry":{"type":"Point","coordinates":[81.4861,19.6464]},"properties":{"gauge_id":"03017","GHI_STN_ID":"goda_cherr","CWC_SITE_N":"Cherribeda","RIV_BASIN":"Godavari","CWC_RIVER":"Godavari/Indravati/Bardha"}},{"type":"Feature","geometry":{"type":"Point","coordinates":[81.3011,19.0794]},"properties":{"gauge_id":"03018","GHI_STN_ID":"goda_chind","CWC_SITE_N":"Chindnar","RIV_BASIN":"Godavari","CWC_RIVER":"Godavari/Indravati"}},{"type":"Feature","geometry":{"type":"Point","coordinates":[77.5831,18.5622]},"properties":{"gauge_id":"03019","GHI_STN_ID":"goda_deglo","CWC_SITE_N":"Degloor","RIV_BASIN":"Godavari","CWC_RIVER":"Godavari/Manjira/Lendi"}},{"type":"Feature","geometry":{"type":"Point","coordinates":[76.3633,19.2203]},"properties":{"gauge_id":"03020","GHI_STN_ID":"goda_dhale","CWC_SITE_N":"Dhalegaon","RIV_BASIN":"Godavari","CWC_RIVER":"Godavari"}},{"type":"Feature","geometry":{"type":"Point","coordinates":[78.4367,18.8289]},"properties":{"gauge_id":"03024","GHI_STN_ID":"goda_gandl","CWC_SITE_N":"Gandlapet","RIV_BASIN":"Godavari","CWC_RIVER":"Godavari/Peddavagu"}},{"type":"Feature","geometry":{"type":"Point","coordinates":[79.0892,19.9472]},"properties":{"gauge_id":"03028","GHI_STN_ID":"goda_ghugu","CWC_SITE_N":"Ghugus","RIV_BASIN":"Godavari","CWC_RIVER":"Godavari/Pranhita/Wardha"}},{"type":"Feature","geometry":{"type":"Point","coordinates":[76.7292,19.0217]},"properties":{"gauge_id":"03029","GHI_STN_ID":"goda_grbri","CWC_SITE_N":"G.R.Bridge","RIV_BASIN":"Godavari","CWC_RIVER":"Godavari"}},{"type":"Feature","geometry":{"type":"Point","coordinates":[78.3247,20.5472]},"properties":{"gauge_id":"03030","GHI_STN_ID":"goda_hivra","CWC_SITE_N":"Hivra","RIV_BASIN":"Godavari","CWC_RIVER":"Godavari/Pranhita/Wardha"}},{"type":"Feature","geometry":{"type":"Point","coordinates":[82.0228,19.1081]},"properties":{"gauge_id":"03031","GHI_STN_ID":"goda_jagda","CWC_SITE_N":"Jagdalpur","RIV_BASIN":"Godavari","CWC_RIVER":"Godavari/Indravati"}},{"type":"Feature","geometry":{"type":"Point","coordinates":[77.1481,19.9611]},"properties":{"gauge_id":"03038","GHI_STN_ID":"goda_kanha","CWC_SITE_N":"Kanhargaon","RIV_BASIN":"Godavari","CWC_RIVER":"Godavari/Pranhita/Wardha/Penganga"}},{"type":"Feature","geometry":{"type":"Point","coordinates":[79.9,22.3819]},"properties":{"gauge_id":"03040","GHI_STN_ID":"goda_keola","CWC_SITE_N":"Keolari","RIV_BASIN":"Godavari","CWC_RIVER":"Godavari/Pranhita/Wainganga"}},{"type":"Feature","geometry":{"type":"Point","coordinates":[81.3875,17.4875]},"properties":{"gauge_id":"03043","GHI_STN_ID":"goda_koida","CWC_SITE_N":"Koida","RIV_BASIN":"Godavari","CWC_RIVER":"Godavari"}},{"type":"Feature","geometry":{"type":"Point","coordinates":[81.3928,17.7989]},"properties":{"gauge_id":"03045","GHI_STN_ID":"goda_konta","CWC_SITE_N":"Konta","RIV_BASIN":"Godavari","CWC_RIVER":"Godavari/Sabari"}},{"type":"Feature","geometry":{"type":"Point","coordinates":[82.2333,19.2772]},"properties":{"gauge_id":"03047","GHI_STN_ID":"goda_kosag","CWC_SITE_N":"Kosagumda","RIV_BASIN":"Godavari","CWC_RIVER":"Godavari/Indravati/Baskal"}},{"type":"Feature","geometry":{"type":"Point","coordinates":[80.175,21.8842]},"properties":{"gauge_id":"03048","GHI_STN_ID":"goda_kumha","CWC_SITE_N":"Kumhari","RIV_BASIN":"Godavari","CWC_RIVER":"Godavari/Pranhita/Wainganga"}},{"type":"Feature","geometry":{"type":"Point","coordinates":[79.4447,18.8358]},"properties":{"gauge_id":"03055","GHI_STN_ID":"goda_manch","CWC_SITE_N":"Mancherial","RIV_BASIN":"Godavari","CWC_RIVER":"Godavari"}},{"type":"Feature","geometry":{"type":"Point","coordinates":[77.9869,20.1889]},"properties":{"gauge_id":"03056","GHI_STN_ID":"goda_mangr","CWC_SITE_N":"Mangrul","RIV_BASIN":"Godavari","CWC_RIVER":"Godavari/Pranhita/Wardha/Penganga/Aran"}},{"type":"Feature","geometry":{"type":"Point","coordinates":[80.6892,19.2989]},"properties":{"gauge_id":"03057","GHI_STN_ID":"goda_mirda","CWC_SITE_N":"Mirdapalli","RIV_BASIN":"Godavari","CWC_RIVER":"Godavari/Pranhita/Indravati"}},{"type":"Feature","geometry":{"type":"Point","coordinates":[78.8089,20.5256]},"properties":{"gauge_id":"03064","GHI_STN_ID":"goda_nandg","CWC_SITE_N":"Nandgaon","RIV_BASIN":"Godavari","CWC_RIVER":"Godavari/Pranhita/Wardha/Wunna"}},{"type":"Feature","geometry":{"type":"Point","coordinates":[82.5119,19.1975]},"properties":{"gauge_id":"03068","GHI_STN_ID":"goda_nowra","CWC_SITE_N":"Nowrangpur","RIV_BASIN":"Godavari","CWC_RIVER":"Godavari/Indravati"}},{"type":"Feature","geometry":{"type":"Point","coordinates":[74.8339,19.5344]},"properties":{"gauge_id":"03069","GHI_STN_ID":"goda_pache","CWC_SITE_N":"Pachegaon","RIV_BASIN":"Godavari","CWC_RIVER":"Godavari/Pravara"}},{"type":"Feature","geometry":{"type":"Point","coordinates":[80.3494,18.8525]},"properties":{"gauge_id":"03071","GHI_STN_ID":"goda_patha","CWC_SITE_N":"Pathagudem","RIV_BASIN":"Godavari","CWC_RIVER":"Godavari/Indravati"}},{"type":"Feature","geometry":{"type":"Point","coordinates":[79.6483,20.7931]},"properties":{"gauge_id":"03072","GHI_STN_ID":"goda_pauni","CWC_SITE_N":"Pauni","RIV_BASIN":"Godavari","CWC_RIVER":"Godavari/Pranhita/Wainganga"}},{"type":"Feature","geometry":{"type":"Point","coordinates":[80.3958,18.5872]},"properties":{"gauge_id":"03073","GHI_STN_ID":"goda_perur","CWC_SITE_N":"Perur","RIV_BASIN":"Godavari","CWC_RIVER":"Godavari"}},{"type":"Feature","geometry":{"type":"Point","coordinates":[78.5778,19.8175]},"properties":{"gauge_id":"03074","GHI_STN_ID":"goda_pgbri","CWC_SITE_N":"P.G.Bridge","RIV_BASIN":"Godavari","CWC_RIVER":"Godavari/Pranhita/Wardha/Penganga"}},{"type":"Feature","geometry":{"type":"Point","coordinates":[81.6564,17.2519]},"properties":{"gauge_id":"03075","GHI_STN_ID":"goda_polav","CWC_SITE_N":"Polavaram","RIV_BASIN":"Godavari","CWC_RIVER":"Godavari"}},{"type":"Feature","geometry":{"type":"Point","coordinates":[81.7981,18.1894]},"properties":{"gauge_id":"03076","GHI_STN_ID":"goda_potte","CWC_SITE_N":"Potteru (Seasonal)","RIV_BASIN":"Godavari","CWC_RIVER":"Godavari/Sabari/Potteru Vagu"}},{"type":"Feature","geometry":{"type":"Point","coordinates":[77.0131,19.1758]},"properties":{"gauge_id":"03079","GHI_STN_ID":"goda_purna","CWC_SITE_N":"Purna","RIV_BASIN":"Godavari","CWC_RIVER":"Godavari/Purna"}},{"type":"Feature","geometry":{"type":"Point","coordinates":[80.2539,21.6256]},"properties":{"gauge_id":"03081","GHI_STN_ID":"goda_rajeg","CWC_SITE_N":"Rajegaon","RIV_BASIN":"Godavari","CWC_RIVER":"Godavari/Pranhita/Bagh"}},{"type":"Feature","geometry":{"type":"Point","coordinates":[79.6656,20.1936]},"properties":{"gauge_id":"03082","GHI_STN_ID":"goda_rajol","CWC_SITE_N":"Rajoli","RIV_BASIN":"Godavari","CWC_RIVER":"Godavari/Pranhita/Wardha/Andhari/Mul"}},{"type":"Feature","geometry":{"type":"Point","coordinates":[78.8242,21.7189]},"properties":{"gauge_id":"03083","GHI_STN_ID":"goda_ramak","CWC_SITE_N":"Ramakona","RIV_BASIN":"Godavari","CWC_RIVER":"Godavari/Pranhita/Kanhan"}},{"type":"Feature","geometry":{"type":"Point","coordinates":[77.0525,18.0758]},"properties":{"gauge_id":"03085","GHI_STN_ID":"goda_saiga","CWC_SITE_N":"Saigaon","RIV_BASIN":"Godavari","CWC_RIVER":"Godavari/Manjira"}},{"type":"Feature","geometry":{"type":"Point","coordinates":[79.6133,19.5614]},"properties":{"gauge_id":"03087","GHI_STN_ID":"goda_sakmu","CWC_SITE_N":"Sakmur","RIV_BASIN":"Godavari","CWC_RIVER":"Godavari/Pranhita/Wardha"}},{"type":"Feature","geometry":{"type":"Point","coordinates":[79.9264,20.9122]},"properties":{"gauge_id":"03089","GHI_STN_ID":"goda_saleb","CWC_SITE_N":"Salebardi","RIV_BASIN":"Godavari","CWC_RIVER":"Godavari/Pranhita/Wainganga/Chulband"}},{"type":"Feature","geometry":{"type":"Point","coordinates":[80.8192,17.5908]},"properties":{"gauge_id":"03091","GHI_STN_ID":"goda_sang2","CWC_SITE_N":"Sangam (Murredu)","RIV_BASIN":"Godavari","CWC_RIVER":"Godavari/Kinnerasani/Murredu"}},{"type":"Feature","geometry":{"type":"Point","coordinates":[82.1428,18.6125]},"properties":{"gauge_id":"03092","GHI_STN_ID":"goda_sarad","CWC_SITE_N":"Saradaput","RIV_BASIN":"Godavari","CWC_RIVER":"Godavari/Sabari"}},{"type":"Feature","geometry":{"type":"Point","coordinates":[79.2331,21.2167]},"properties":{"gauge_id":"03094","GHI_STN_ID":"goda_satra","CWC_SITE_N":"Satrapur","RIV_BASIN":"Godavari","CWC_RIVER":"Godavari/Pranhita/Wainganga/Kanhan"}},{"type":"Feature","geometry":{"type":"Point","coordinates":[79.8044,18.62]},"properties":{"gauge_id":"03098","GHI_STN_ID":"goda_soman","CWC_SITE_N":"Somanpally (Seasonal)","RIV_BASIN":"Godavari","CWC_RIVER":"Godavari/Maner"}},{"type":"Feature","geometry":{"type":"Point","coordinates":[81.8839,19.2697]},"properties":{"gauge_id":"03099","GHI_STN_ID":"goda_sonar","CWC_SITE_N":"Sonarpal","RIV_BASIN":"Godavari","CWC_RIVER":"Godavari/Indravati/NarangiMarkandi"}},{"type":"Feature","geometry":{"type":"Point","coordinates":[79.9469,18.9783]},"properties":{"gauge_id":"03103","GHI_STN_ID":"goda_tekra","CWC_SITE_N":"Tekra","RIV_BASIN":"Godavari","CWC_RIVER":"Godavari/Pranhita/Pranhita"}},{"type":"Feature","geometry":{"type":"Point","coordinates":[81.2325,19.0122]},"properties":{"gauge_id":"03105","GHI_STN_ID":"goda_tumna","CWC_SITE_N":"Tumnar","RIV_BASIN":"Godavari","CWC_RIVER":"Godavari/Indravati/Dantewara"}},{"type":"Feature","geometry":{"type":"Point","coordinates":[80.0917,20.4219]},"properties":{"gauge_id":"03107","GHI_STN_ID":"goda_waira","CWC_SITE_N":"Wairagarh","RIV_BASIN":"Godavari","CWC_RIVER":"Godavari/Pranhita/Wainganga/Khobragarhi"}},{"type":"Feature","geometry":{"type":"Point","coordinates":[77.4556,19.0439]},"properties":{"gauge_id":"03109","GHI_STN_ID":"goda_yelli","CWC_SITE_N":"Yelli","RIV_BASIN":"Godavari","CWC_RIVER":"Godavari"}},{"type":"Feature","geometry":{"type":"Point","coordinates":[76.7708,19.3958]},"properties":{"gauge_id":"03110","GHI_STN_ID":"goda_zarix","CWC_SITE_N":"Zari","RIV_BASIN":"Godavari","CWC_RIVER":"Godavari/Purna Dudhna"}},{"type":"Feature","geometry":{"type":"Point","coordinates":[74.6333,16.7808]},"properties":{"gauge_id":"04003","GHI_STN_ID":"kris_arjun","CWC_SITE_N":"Arjunwad (Seasonal)","RIV_BASIN":"Krishna","CWC_RIVER":"Krishna"}},{"type":"Feature","geometry":{"type":"Point","coordinates":[77.9572,15.8833]},"properties":{"gauge_id":"04004","GHI_STN_ID":"kris_bawap","CWC_SITE_N":"Bawapuram","RIV_BASIN":"Krishna","CWC_RIVER":"Krishna/Tungabhadra"}},{"type":"Feature","geometry":{"type":"Point","coordinates":[75.7797,14.4339]},"properties":{"gauge_id":"04005","GHI_STN_ID":"kris_byala","CWC_SITE_N":"Byaladahalli","RIV_BASIN":"Krishna","CWC_RIVER":"Krishna/Tungabhadra/Tunga"}},{"type":"Feature","geometry":{"type":"Point","coordinates":[75.7228,15.8717]},"properties":{"gauge_id":"04006","GHI_STN_ID":"kris_chola","CWC_SITE_N":"Cholachugudda","RIV_BASIN":"Krishna","CWC_RIVER":"Krishna/Malaprabha"}},{"type":"Feature","geometry":{"type":"Point","coordinates":[79.6697,16.7392]},"properties":{"gauge_id":"04007","GHI_STN_ID":"kris_damer","CWC_SITE_N":"Dameracherla","RIV_BASIN":"Krishna","CWC_RIVER":"Krishna/Musi"}},{"type":"Feature","geometry":{"type":"Point","coordinates":[79.3387,16.79]},"properties":{"gauge_id":"04012","GHI_STN_ID":"kris_halia","CWC_SITE_N":"Halia","RIV_BASIN":"Krishna","CWC_RIVER":"Krishna/Halia"}},{"type":"Feature","geometry":{"type":"Point","coordinates":[75.6744,14.8306]},"properties":{"gauge_id":"04013","GHI_STN_ID":"kris_haral","CWC_SITE_N":"Haralahalli","RIV_BASIN":"Krishna","CWC_RIVER":"Krishna/Tungabhadra"}},{"type":"Feature","geometry":{"type":"Point","coordinates":[75.6853,13.9761]},"properties":{"gauge_id":"04015","GHI_STN_ID":"kris_holeh","CWC_SITE_N":"Holehonnur","RIV_BASIN":"Krishna","CWC_RIVER":"Krishna/Tungabhadra/Tunga"}},{"type":"Feature","geometry":{"type":"Point","coordinates":[75.6625,14.2372]},"properties":{"gauge_id":"04016","GHI_STN_ID":"kris_honna","CWC_SITE_N":"Honnali","RIV_BASIN":"Krishna","CWC_RIVER":"Krishna/Tungabhadra"}},{"type":"Feature","geometry":{"type":"Point","coordinates":[76.9231,16.4911]},"properties":{"gauge_id":"04017","GHI_STN_ID":"kris_huvin","CWC_SITE_N":"Huvinhedigi","RIV_BASIN":"Krishna","CWC_RIVER":"Krishna"}},{"type":"Feature","geometry":{"type":"Point","coordinates":[77.4628,17.2544]},"properties":{"gauge_id":"04018","GHI_STN_ID":"kris_jeewa","CWC_SITE_N":"Jeewangi","RIV_BASIN":"Krishna","CWC_RIVER":"Krishna/Bhima/Kagna"}},{"type":"Feature","geometry":{"type":"Point","coordinates":[77.8411,16.2592]},"properties":{"gauge_id":"04019","GHI_STN_ID":"kris_kagra","CWC_SITE_N":"K. Agraharam","RIV_BASIN":"Krishna","CWC_RIVER":"Krishna"}},{"type":"Feature","geometry":{"type":"Point","coordinates":[74.1903,17.2944]},"properties":{"gauge_id":"04021","GHI_STN_ID":"kris_karad","CWC_SITE_N":"Karad","RIV_BASIN":"Krishna","CWC_RIVER":"Krishna"}},{"type":"Feature","geometry":{"type":"Point","coordinates":[80.3164,16.7156]},"properties":{"gauge_id":"04022","GHI_STN_ID":"kris_keesa","CWC_SITE_N":"Keesara","RIV_BASIN":"Krishna","CWC_RIVER":"Krishna/Munneru"}},{"type":"Feature","geometry":{"type":"Point","coordinates":[76.3197,13.7542]},"properties":{"gauge_id":"04023","GHI_STN_ID":"kris_kello","CWC_SITE_N":"Kellodu","RIV_BASIN":"Krishna","CWC_RIVER":"Krishna Tungabhadra/Vedavathi"}},{"type":"Feature","geometry":{"type":"Point","coordinates":[75.6372,17.2864]},"properties":{"gauge_id":"04024","GHI_STN_ID":"kris_kokan","CWC_SITE_N":"Kokangaon","RIV_BASIN":"Krishna","CWC_RIVER":"Krishna/Bhima/Borinala"}},{"type":"Feature","geometry":{"type":"Point","coordinates":[75.6339,14.5]},"properties":{"gauge_id":"04025","GHI_STN_ID":"kris_kuppe","CWC_SITE_N":"Kuppellur","RIV_BASIN":"Krishna","CWC_RIVER":"Krishna Tungabhadra/Kumudavathi"}},{"type":"Feature","geometry":{"type":"Point","coordinates":[74.6031,16.6836]},"properties":{"gauge_id":"04026","GHI_STN_ID":"kris_kurun","CWC_SITE_N":"Kurundwad","RIV_BASIN":"Krishna","CWC_RIVER":"Krishna"}},{"type":"Feature","geometry":{"type":"Point","coordinates":[80.3558,16.9181]},"properties":{"gauge_id":"04028","GHI_STN_ID":"kris_madhi","CWC_SITE_N":"Madhira","RIV_BASIN":"Krishna","CWC_RIVER":"Krishna/Munneru/Wyra"}},{"type":"Feature","geometry":{"type":"Point","coordinates":[77.1572,17.2031]},"properties":{"gauge_id":"04030","GHI_STN_ID":"kris_malkh","CWC_SITE_N":"Malkhed","RIV_BASIN":"Krishna","CWC_RIVER":"Krishna/Bhima/"}},{"type":"Feature","geometry":{"type":"Point","coordinates":[77.4264,15.9483]},"properties":{"gauge_id":"04031","GHI_STN_ID":"kris_mantr","CWC_SITE_N":"Mantralayam","RIV_BASIN":"Krishna","CWC_RIVER":"Krishna/Tungabhadra"}},{"type":"Feature","geometry":{"type":"Point","coordinates":[75.6181,14.9389]},"properties":{"gauge_id":"04032","GHI_STN_ID":"kris_marol","CWC_SITE_N":"Marol","RIV_BASIN":"Krishna","CWC_RIVER":"Krishna Tungabhadra/Varada"}},{"type":"Feature","geometry":{"type":"Point","coordinates":[75.1392,17.9722]},"properties":{"gauge_id":"04038","GHI_STN_ID":"kris_narsi","CWC_SITE_N":"Narsingpur","RIV_BASIN":"Krishna","CWC_RIVER":"Krishna/Bhima"}},{"type":"Feature","geometry":{"type":"Point","coordinates":[75.3667,15.55]},"properties":{"gauge_id":"04039","GHI_STN_ID":"kris_naval","CWC_SITE_N":"Navalagund","RIV_BASIN":"Krishna","CWC_RIVER":"Krishna/Malaprabha/Bennihalla"}},{"type":"Feature","geometry":{"type":"Point","coordinates":[76.7169,15.4917]},"properties":{"gauge_id":"04040","GHI_STN_ID":"kris_oolle","CWC_SITE_N":"Oollenur","RIV_BASIN":"Krishna","CWC_RIVER":"Krishna/Tungabhadra"}},{"type":"Feature","geometry":{"type":"Point","coordinates":[80.0478,16.9489]},"properties":{"gauge_id":"04041","GHI_STN_ID":"kris_paler","CWC_SITE_N":"Paleru Bridge","RIV_BASIN":"Krishna","CWC_RIVER":"Krishna/Paleru"}},{"type":"Feature","geometry":{"type":"Point","coordinates":[74.0022,18.6669]},"properties":{"gauge_id":"04044","GHI_STN_ID":"kris_phulg","CWC_SITE_N":"Phulgaon (Seasonal)","RIV_BASIN":"Krishna","CWC_RIVER":"Krishna/Bhima"}},{"type":"Feature","geometry":{"type":"Point","coordinates":[74.5275,16.5639]},"properties":{"gauge_id":"04047","GHI_STN_ID":"kris_sadal","CWC_SITE_N":"Sadalga (Seasonal)","RIV_BASIN":"Krishna","CWC_RIVER":"Krishna/Dudhganga"}},{"type":"Feature","geometry":{"type":"Point","coordinates":[74.4967,16.855]},"properties":{"gauge_id":"04048","GHI_STN_ID":"kris_samdo","CWC_SITE_N":"Samdoli (Seasonal)","RIV_BASIN":"Krishna","CWC_RIVER":"Krishna/Varna"}},{"type":"Feature","geometry":{"type":"Point","coordinates":[75.0075,17.9114]},"properties":{"gauge_id":"04049","GHI_STN_ID":"kris_sarat","CWC_SITE_N":"Sarati","RIV_BASIN":"Krishna","CWC_RIVER":"Krishna/Bhima/Nira"}},{"type":"Feature","geometry":{"type":"Point","coordinates":[75.585,13.9269]},"properties":{"gauge_id":"04050","GHI_STN_ID":"kris_shimo","CWC_SITE_N":"Shimoga","RIV_BASIN":"Krishna","CWC_RIVER":"Tungabhadra/Tunga"}},{"type":"Feature","geometry":{"type":"Point","coordinates":[75.5942,17.3686]},"properties":{"gauge_id":"04051","GHI_STN_ID":"kris_shird","CWC_SITE_N":"Shirdhon","RIV_BASIN":"Krishna","CWC_RIVER":"Krishna/Bhima/Borinala/Doddanala"}},{"type":"Feature","geometry":{"type":"Point","coordinates":[75.8478,17.4131]},"properties":{"gauge_id":"04054","GHI_STN_ID":"kris_takli","CWC_SITE_N":"Takli","RIV_BASIN":"Krishna","CWC_RIVER":"Krishna/Bhima"}},{"type":"Feature","geometry":{"type":"Point","coordinates":[76.2842,16.4728]},"properties":{"gauge_id":"04055","GHI_STN_ID":"kris_talik","CWC_SITE_N":"Talikot","RIV_BASIN":"Krishna","CWC_RIVER":"Krishna/Don"}},{"type":"Feature","geometry":{"type":"Point","coordinates":[74.5736,16.6753]},"properties":{"gauge_id":"04056","GHI_STN_ID":"kris_terwa","CWC_SITE_N":"Terwad (Seasonal)","RIV_BASIN":"Krishna","CWC_RIVER":"Krishna/Panchganga"}},{"type":"Feature","geometry":{"type":"Point","coordinates":[76.9628,15.6611]},"properties":{"gauge_id":"04057","GHI_STN_ID":"kris_trama","CWC_SITE_N":"T. Ramapuram (Seasonal)","RIV_BASIN":"Krishna","CWC_RIVER":"Krishna/Tungabhadra/Hagari"}},{"type":"Feature","geometry":{"type":"Point","coordinates":[80.625,16.5011]},"properties":{"gauge_id":"04060","GHI_STN_ID":"kris_vijay","CWC_SITE_N":"Vijayawada","RIV_BASIN":"Krishna","CWC_RIVER":"Krishna"}},{"type":"Feature","geometry":{"type":"Point","coordinates":[75.885,17.5342]},"properties":{"gauge_id":"04061","GHI_STN_ID":"kris_wadak","CWC_SITE_N":"Wadakbal","RIV_BASIN":"Krishna","CWC_RIVER":"Krishna/Bhima/Sina"}},{"type":"Feature","geometry":{"type":"Point","coordinates":[80.0692,16.7942]},"properties":{"gauge_id":"04062","GHI_STN_ID":"kris_waden","CWC_SITE_N":"Wadenapally","RIV_BASIN":"Krishna","CWC_RIVER":"Krishna"}},{"type":"Feature","geometry":{"type":"Point","coordinates":[74.165,17.2722]},"properties":{"gauge_id":"04063","GHI_STN_ID":"kris_warun","CWC_SITE_N":"Warunjli","RIV_BASIN":"Krishna","CWC_RIVER":"Krishna/Koyna"}},{"type":"Feature","geometry":{"type":"Point","coordinates":[77.1253,16.7375]},"properties":{"gauge_id":"04064","GHI_STN_ID":"kris_yadgi","CWC_SITE_N":"Yadgir","RIV_BASIN":"Krishna","CWC_RIVER":"Krishna/Bhima"}},{"type":"Feature","geometry":{"type":"Point","coordinates":[76.4008,12.6028]},"properties":{"gauge_id":"05001","GHI_STN_ID":"cauv_akkih","CWC_SITE_N":"Akkihebbal","RIV_BASIN":"Cauvery","CWC_RIVER":"Hemavati"}},{"type":"Feature","geometry":{"type":"Point","coordinates":[77.7239,12.1822]},"properties":{"gauge_id":"05002","GHI_STN_ID":"cauv_bilig","CWC_SITE_N":"Biligundulu","RIV_BASIN":"Cauvery","CWC_RIVER":"Cauvery"}},{"type":"Feature","geometry":{"type":"Point","coordinates":[77.8875,11.0317]},"properties":{"gauge_id":"05004","GHI_STN_ID":"cauv_elunu","CWC_SITE_N":"Elunuthimangalam","RIV_BASIN":"Cauvery","CWC_RIVER":"Cauvery/Noyyal"}},{"type":"Feature","geometry":{"type":"Point","coordinates":[77.7856,12.1208]},"properties":{"gauge_id":"05005","GHI_STN_ID":"cauv_hogen","CWC_SITE_N":"Hogenakkal","RIV_BASIN":"Cauvery","CWC_RIVER":"Cauvery/Chinnar"}},{"type":"Feature","geometry":{"type":"Point","coordinates":[76.2878,12.3461]},"properties":{"gauge_id":"05007","GHI_STN_ID":"cauv_kmvad","CWC_SITE_N":"K.M.Vadi","RIV_BASIN":"Cauvery","CWC_RIVER":"Cauvery/Lakshmanthirtha"}},{"type":"Feature","geometry":{"type":"Point","coordinates":[77.8903,11.0811]},"properties":{"gauge_id":"05008","GHI_STN_ID":"cauv_kodum","CWC_SITE_N":"Kodumudi","RIV_BASIN":"Cauvery","CWC_RIVER":"Cauvery"}},{"type":"Feature","geometry":{"type":"Point","coordinates":[75.9619,12.5025]},"properties":{"gauge_id":"05010","GHI_STN_ID":"cauv_kudig","CWC_SITE_N":"Kudige","RIV_BASIN":"Cauvery","CWC_RIVER":"Cauvery"}},{"type":"Feature","geometry":{"type":"Point","coordinates":[78.435,10.9433]},"properties":{"gauge_id":"05012","GHI_STN_ID":"cauv_musir","CWC_SITE_N":"Musiri","RIV_BASIN":"Cauvery","CWC_RIVER":"Cauvery"}},{"type":"Feature","geometry":{"type":"Point","coordinates":[76.0839,11.8083]},"properties":{"gauge_id":"05013","GHI_STN_ID":"cauv_mutha","CWC_SITE_N":"Muthankera","RIV_BASIN":"Cauvery","CWC_RIVER":"Cauvery/Kabini"}},{"type":"Feature","geometry":{"type":"Point","coordinates":[77.9847,10.8808]},"properties":{"gauge_id":"05014","GHI_STN_ID":"cauv_nall1","CWC_SITE_N":"Nallamaranpatty","RIV_BASIN":"Cauvery","CWC_RIVER":"Cauvery/Amaravathi"}},{"type":"Feature","geometry":{"type":"Point","coordinates":[76.8911,11.2878]},"properties":{"gauge_id":"05015","GHI_STN_ID":"cauv_nelli","CWC_SITE_N":"Nellithurai","RIV_BASIN":"Cauvery","CWC_RIVER":"Cauvery/Bhavani"}},{"type":"Feature","geometry":{"type":"Point","coordinates":[75.7936,12.9436]},"properties":{"gauge_id":"05017","GHI_STN_ID":"cauv_sakle","CWC_SITE_N":"Sakleshpur","RIV_BASIN":"Cauvery","CWC_RIVER":"Cauvery/Hemavati"}},{"type":"Feature","geometry":{"type":"Point","coordinates":[77.51,11.5217]},"properties":{"gauge_id":"05018","GHI_STN_ID":"cauv_savan","CWC_SITE_N":"Savandapur","RIV_BASIN":"Cauvery","CWC_RIVER":"Cauvery/Bhavani"}},{"type":"Feature","geometry":{"type":"Point","coordinates":[77.4333,12.5167]},"properties":{"gauge_id":"05021","GHI_STN_ID":"cauv_tbeku","CWC_SITE_N":"T.Bekuppe","RIV_BASIN":"Cauvery","CWC_RIVER":"Cauvery/Arkavati"}},{"type":"Feature","geometry":{"type":"Point","coordinates":[76.9192,11.5728]},"properties":{"gauge_id":"05022","GHI_STN_ID":"cauv_then1","CWC_SITE_N":"Thengumarahada","RIV_BASIN":"Cauvery","CWC_RIVER":"Cauvery/Bhavani/Moyar"}},{"type":"Feature","geometry":{"type":"Point","coordinates":[77.7508,11.5272]},"properties":{"gauge_id":"05023","GHI_STN_ID":"cauv_thevu","CWC_SITE_N":"Thevur","RIV_BASIN":"Cauvery","CWC_RIVER":"Cauvery/Sarabenga"}},{"type":"Feature","geometry":{"type":"Point","coordinates":[76.0214,12.9825]},"properties":{"gauge_id":"05024","GHI_STN_ID":"cauv_thimm","CWC_SITE_N":"Thimmanahalli","RIV_BASIN":"Cauvery","CWC_RIVER":"Cauvery/Hemavati/Yagachi"}},{"type":"Feature","geometry":{"type":"Point","coordinates":[78.0572,11.9383]},"properties":{"gauge_id":"05025","GHI_STN_ID":"cauv_thopp","CWC_SITE_N":"Thoppur","RIV_BASIN":"Cauvery","CWC_RIVER":"Cauvery/Thoppaiyar"}},{"type":"Feature","geometry":{"type":"Point","coordinates":[77.1925,12.4167]},"properties":{"gauge_id":"05027","GHI_STN_ID":"cauv_tkhal","CWC_SITE_N":"T.K.Halli","RIV_BASIN":"Cauvery","CWC_RIVER":"Cauvery/Shimsha"}},{"type":"Feature","geometry":{"type":"Point","coordinates":[76.8942,12.23]},"properties":{"gauge_id":"05028","GHI_STN_ID":"cauv_tnara","CWC_SITE_N":"T.Narasipur","RIV_BASIN":"Cauvery","CWC_RIVER":"Cauvery/Kabini"}},{"type":"Feature","geometry":{"type":"Point","coordinates":[77.7,11.4778]},"properties":{"gauge_id":"05029","GHI_STN_ID":"cauv_urach","CWC_SITE_N":"Urachikottai","RIV_BASIN":"Cauvery","CWC_RIVER":"Cauvery"}},{"type":"Feature","geometry":{"type":"Point","coordinates":[86.1736,22.7914]},"properties":{"gauge_id":"06001","GHI_STN_ID":"sube_adity","CWC_SITE_N":"Adityapur","RIV_BASIN":"Subernarekha","CWC_RIVER":"Subarnarekha/Kharkai"}},{"type":"Feature","geometry":{"type":"Point","coordinates":[86.4683,22.5806]},"properties":{"gauge_id":"06006","GHI_STN_ID":"sube_ghats","CWC_SITE_N":"Ghatsila","RIV_BASIN":"Subernarekha","CWC_RIVER":"Subarnarekha"}},{"type":"Feature","geometry":{"type":"Point","coordinates":[86.9181,21.5478]},"properties":{"gauge_id":"06007","GHI_STN_ID":"sube_govin","CWC_SITE_N":"Govindapur","RIV_BASIN":"Subernarekha","CWC_RIVER":"Burhabalang"}},{"type":"Feature","geometry":{"type":"Point","coordinates":[86.2161,22.8156]},"properties":{"gauge_id":"06008","GHI_STN_ID":"sube_jams1","CWC_SITE_N":"Jamshedpur","RIV_BASIN":"Subernarekha","CWC_RIVER":"Subarnarekha"}},{"type":"Feature","geometry":{"type":"Point","coordinates":[85.5189,20.9297]},"properties":{"gauge_id":"07001","GHI_STN_ID":"brba_altum","CWC_SITE_N":"Altuma","RIV_BASIN":"Brahmani-Baitarani","CWC_RIVER":"Brahmani/Ramyala"}},{"type":"Feature","geometry":{"type":"Point","coordinates":[86.1206,21.2111]},"properties":{"gauge_id":"07002","GHI_STN_ID":"brba_anand","CWC_SITE_N":"Anandpur","RIV_BASIN":"Brahmani-Baitarani","CWC_RIVER":"Baitarni"}},{"type":"Feature","geometry":{"type":"Point","coordinates":[85.6733,22.0658]},"properties":{"gauge_id":"07005","GHI_STN_ID":"brba_champ","CWC_SITE_N":"Champua","RIV_BASIN":"Brahmani-Baitarani","CWC_RIVER":"Baitarni"}},{"type":"Feature","geometry":{"type":"Point","coordinates":[84.9425,21.8378]},"properties":{"gauge_id":"07007","GHI_STN_ID":"brba_gomla","CWC_SITE_N":"Gomlai","RIV_BASIN":"Brahmani-Baitarani","CWC_RIVER":"Brahmani"}},{"type":"Feature","geometry":{"type":"Point","coordinates":[85.1047,22.3217]},"properties":{"gauge_id":"07008","GHI_STN_ID":"brba_jarai","CWC_SITE_N":"Jaraikela","RIV_BASIN":"Brahmani-Baitarani","CWC_RIVER":"Brahmani/Koel"}},{"type":"Feature","geometry":{"type":"Point","coordinates":[86.0142,20.8897]},"properties":{"gauge_id":"07009","GHI_STN_ID":"brba_jenap","CWC_SITE_N":"Jenapur","RIV_BASIN":"Brahmani-Baitarani","CWC_RIVER":"Brahmani"}},{"type":"Feature","geometry":{"type":"Point","coordinates":[84.8519,22.2772]},"properties":{"gauge_id":"07011","GHI_STN_ID":"brba_panpo","CWC_SITE_N":"Panposh","RIV_BASIN":"Brahmani-Baitarani","CWC_RIVER":"Brahmani"}},{"type":"Feature","geometry":{"type":"Point","coordinates":[84.4175,22.6233]},"properties":{"gauge_id":"07015","GHI_STN_ID":"brba_tilga","CWC_SITE_N":"Tilga","RIV_BASIN":"Brahmani-Baitarani","CWC_RIVER":"Brahmani/Sankh"}},{"type":"Feature","geometry":{"type":"Point","coordinates":[81.6058,21.8317]},"properties":{"gauge_id":"08001","GHI_STN_ID":"maha_andhi","CWC_SITE_N":"Andhiyarkhore","RIV_BASIN":"Mahanadi","CWC_RIVER":"Mahanadi/Seonath/Hamp"}},{"type":"Feature","geometry":{"type":"Point","coordinates":[82.7117,21.8986]},"properties":{"gauge_id":"08003","GHI_STN_ID":"maha_bamni","CWC_SITE_N":"Bamnidhi","RIV_BASIN":"Mahanadi","CWC_RIVER":"Mahanadi/Hasdeo"}},{"type":"Feature","geometry":{"type":"Point","coordinates":[81.8861,20.9125]},"properties":{"gauge_id":"08005","GHI_STN_ID":"maha_baron","CWC_SITE_N":"Baronda","RIV_BASIN":"Mahanadi","CWC_RIVER":"Mahanadi/Pairi"}},{"type":"Feature","geometry":{"type":"Point","coordinates":[82.7881,21.7267]},"properties":{"gauge_id":"08006","GHI_STN_ID":"maha_basan","CWC_SITE_N":"Basantpur","RIV_BASIN":"Mahanadi","CWC_RIVER":"Mahanadi"}},{"type":"Feature","geometry":{"type":"Point","coordinates":[82.2194,22.0567]},"properties":{"gauge_id":"08009","GHI_STN_ID":"maha_ghato","CWC_SITE_N":"Ghatora","RIV_BASIN":"Mahanadi","CWC_RIVER":"Mahanadi/Seonath"}},{"type":"Feature","geometry":{"type":"Point","coordinates":[82.3472,21.7158]},"properties":{"gauge_id":"08011","GHI_STN_ID":"maha_jondh","CWC_SITE_N":"Jondhra","RIV_BASIN":"Mahanadi","CWC_RIVER":"Mahanadi/Seonath"}},{"type":"Feature","geometry":{"type":"Point","coordinates":[83.7222,20.65]},"properties":{"gauge_id":"08013","GHI_STN_ID":"maha_kanta","CWC_SITE_N":"Kantamal","RIV_BASIN":"Mahanadi","CWC_RIVER":"Mahanadi/Tel"}},{"type":"Feature","geometry":{"type":"Point","coordinates":[83.2231,20.2039]},"properties":{"gauge_id":"08016","GHI_STN_ID":"maha_kesin","CWC_SITE_N":"Kesinga","RIV_BASIN":"Mahanadi","CWC_RIVER":"Mahanadi/Tel"}},{"type":"Feature","geometry":{"type":"Point","coordinates":[81.2472,21.2361]},"properties":{"gauge_id":"08020","GHI_STN_ID":"maha_kotni","CWC_SITE_N":"Kotni","RIV_BASIN":"Mahanadi","CWC_RIVER":"Mahanadi/Seonath"}},{"type":"Feature","geometry":{"type":"Point","coordinates":[83.2042,21.9864]},"properties":{"gauge_id":"08021","GHI_STN_ID":"maha_kurub","CWC_SITE_N":"Kurubhata","RIV_BASIN":"Mahanadi","CWC_RIVER":"Mahanadi/Mand"}},{"type":"Feature","geometry":{"type":"Point","coordinates":[82.2172,23.2036]},"properties":{"gauge_id":"08023","GHI_STN_ID":"maha_manen","CWC_SITE_N":"Manendragarh","RIV_BASIN":"Mahanadi","CWC_RIVER":"Mahanadi/Hasdeo"}},{"type":"Feature","geometry":{"type":"Point","coordinates":[81.5939,21.3411]},"properties":{"gauge_id":"08028","GHI_STN_ID":"maha_patha","CWC_SITE_N":"Patharidih","RIV_BASIN":"Mahanadi","CWC_RIVER":"Mahanadi/Seonath/Kharun"}},{"type":"Feature","geometry":{"type":"Point","coordinates":[81.8783,20.9736]},"properties":{"gauge_id":"08029","GHI_STN_ID":"maha_rajim","CWC_SITE_N":"Rajim","RIV_BASIN":"Mahanadi","CWC_RIVER":"Mahanadi"}},{"type":"Feature","geometry":{"type":"Point","coordinates":[82.5172,21.6517]},"properties":{"gauge_id":"08030","GHI_STN_ID":"maha_rampu","CWC_SITE_N":"Rampur","RIV_BASIN":"Mahanadi","CWC_RIVER":"Mahanadi/Jonk"}},{"type":"Feature","geometry":{"type":"Point","coordinates":[83.5394,20.9833]},"properties":{"gauge_id":"08031","GHI_STN_ID":"maha_saleb","CWC_SITE_N":"Salebhata","RIV_BASIN":"Mahanadi","CWC_RIVER":"Mahanadi/Ong"}},{"type":"Feature","geometry":{"type":"Point","coordinates":[82.5967,21.7167]},"properties":{"gauge_id":"08034","GHI_STN_ID":"maha_seori","CWC_SITE_N":"Seorinarayan","RIV_BASIN":"Mahanadi","CWC_RIVER":"Mahanadi"}},{"type":"Feature","geometry":{"type":"Point","coordinates":[81.6931,21.6256]},"properties":{"gauge_id":"08035","GHI_STN_ID":"maha_simga","CWC_SITE_N":"Simga","RIV_BASIN":"Mahanadi","CWC_RIVER":"Mahanadi/Seonath"}},{"type":"Feature","geometry":{"type":"Point","coordinates":[84.0111,22.1153]},"properties":{"gauge_id":"08036","GHI_STN_ID":"maha_sunde","CWC_SITE_N":"Sundergarh","RIV_BASIN":"Mahanadi","CWC_RIVER":"Mahanadi/Ib"}},{"type":"Feature","geometry":{"type":"Point","coordinates":[84.7833,20.5894]},"properties":{"gauge_id":"08038","GHI_STN_ID":"maha_tikar","CWC_SITE_N":"Tikarapara","RIV_BASIN":"Mahanadi","CWC_RIVER":"Mahanadi"}},{"type":"Feature","geometry":{"type":"Point","coordinates":[78.6686,14.7172]},"properties":{"gauge_id":"09001","GHI_STN_ID":"penn_allad","CWC_SITE_N":"Alladupalli","RIV_BASIN":"Pennar","CWC_RIVER":"Pennar/Kunderu"}},{"type":"Feature","geometry":{"type":"Point","coordinates":[78.8,14.5722]},"properties":{"gauge_id":"09002","GHI_STN_ID":"penn_chenn","CWC_SITE_N":"Chennur","RIV_BASIN":"Pennar","CWC_RIVER":"Pennar"}},{"type":"Feature","geometry":{"type":"Point","coordinates":[78.6778,14.5806]},"properties":{"gauge_id":"09005","GHI_STN_ID":"penn_kamal","CWC_SITE_N":"Kamalapuram","RIV_BASIN":"Pennar","CWC_RIVER":"Pennar/Papagani"}},{"type":"Feature","geometry":{"type":"Point","coordinates":[79.0189,14.7211]},"properties":{"gauge_id":"09008","GHI_STN_ID":"penn_nandi","CWC_SITE_N":"Nandipalli","RIV_BASIN":"Pennar","CWC_RIVER":"Pennar/Sagaileru"}},{"type":"Feature","geometry":{"type":"Point","coordinates":[79.9889,14.4703]},"properties":{"gauge_id":"09009","GHI_STN_ID":"penn_nello","CWC_SITE_N":"Nellore","RIV_BASIN":"Pennar","CWC_RIVER":"Pennar"}},{"type":"Feature","geometry":{"type":"Point","coordinates":[78.0133,14.5978]},"properties":{"gauge_id":"09011","GHI_STN_ID":"penn_singa","CWC_SITE_N":"Singavaram","RIV_BASIN":"Pennar","CWC_RIVER":"Pennar/Chitravathi"}},{"type":"Feature","geometry":{"type":"Point","coordinates":[78.0028,14.9222]},"properties":{"gauge_id":"09012","GHI_STN_ID":"penn_tadap","CWC_SITE_N":"Tadapatri","RIV_BASIN":"Pennar","CWC_RIVER":"Pennar"}},{"type":"Feature","geometry":{"type":"Point","coordinates":[74.3197,23.0542]},"properties":{"gauge_id":"10004","GHI_STN_ID":"mahi_chaka","CWC_SITE_N":"Chakaliya","RIV_BASIN":"Mahi","CWC_RIVER":"Mahi/Anas"}},{"type":"Feature","geometry":{"type":"Point","coordinates":[74.4756,24.0867]},"properties":{"gauge_id":"10005","GHI_STN_ID":"mahi_dhari","CWC_SITE_N":"Dhariawad","RIV_BASIN":"Mahi","CWC_RIVER":"Mahi/Som/Jakham"}},{"type":"Feature","geometry":{"type":"Point","coordinates":[73.1408,22.5347]},"properties":{"gauge_id":"10008","GHI_STN_ID":"mahi_khanp","CWC_SITE_N":"Khanpur","RIV_BASIN":"Mahi","CWC_RIVER":"Mahi"}},{"type":"Feature","geometry":{"type":"Point","coordinates":[74.7181,23.3497]},"properties":{"gauge_id":"10010","GHI_STN_ID":"mahi_mataj","CWC_SITE_N":"Mataji","RIV_BASIN":"Mahi","CWC_RIVER":"Mahi"}},{"type":"Feature","geometry":{"type":"Point","coordinates":[74.1367,23.7675]},"properties":{"gauge_id":"10011","GHI_STN_ID":"mahi_pader","CWC_SITE_N":"Paderdibadi","RIV_BASIN":"Mahi","CWC_RIVER":"Mahi"}},{"type":"Feature","geometry":{"type":"Point","coordinates":[73.0789,22.1103]},"properties":{"gauge_id":"10013","GHI_STN_ID":"mahi_pinga","CWC_SITE_N":"Pingalwada","RIV_BASIN":"Mahi","CWC_RIVER":"Dhadhar (Independent river)"}},{"type":"Feature","geometry":{"type":"Point","coordinates":[74.2236,23.8728]},"properties":{"gauge_id":"10014","GHI_STN_ID":"mahi_range","CWC_SITE_N":"Rangeli","RIV_BASIN":"Mahi","CWC_RIVER":"Mahi/som"}},{"type":"Feature","geometry":{"type":"Point","coordinates":[72.8067,23.5764]},"properties":{"gauge_id":"11001","GHI_STN_ID":"saba_derol","CWC_SITE_N":"Derol Bridge","RIV_BASIN":"Sabarmati","CWC_RIVER":"Sabarmati"}},{"type":"Feature","geometry":{"type":"Point","coordinates":[73.1681,24.3556]},"properties":{"gauge_id":"11005","GHI_STN_ID":"saba_jotas","CWC_SITE_N":"Jotasan","RIV_BASIN":"Sabarmati","CWC_RIVER":"Sabarmati/Wakal"}},{"type":"Feature","geometry":{"type":"Point","coordinates":[73.0083,24.2311]},"properties":{"gauge_id":"11006","GHI_STN_ID":"saba_khero","CWC_SITE_N":"Kheroj","RIV_BASIN":"Sabarmati","CWC_RIVER":"Sabarmati"}},{"type":"Feature","geometry":{"type":"Point","coordinates":[72.8844,22.9772]},"properties":{"gauge_id":"11007","GHI_STN_ID":"saba_ratan","CWC_SITE_N":"Ratanpur","RIV_BASIN":"Sabarmati","CWC_RIVER":"Sabarmati/Watrak"}},{"type":"Feature","geometry":{"type":"Point","coordinates":[72.5356,22.6497]},"properties":{"gauge_id":"11010","GHI_STN_ID":"saba_vauth","CWC_SITE_N":"Vautha","RIV_BASIN":"Sabarmati","CWC_RIVER":"Sabarmati"}},{"type":"Feature","geometry":{"type":"Point","coordinates":[80.3781,22.4842]},"properties":{"gauge_id":"12001","GHI_STN_ID":"narm_bamni","CWC_SITE_N":"Bamni","RIV_BASIN":"Narmada","CWC_RIVER":"Narmada/Banjar"}},{"type":"Feature","geometry":{"type":"Point","coordinates":[79.0156,23.0308]},"properties":{"gauge_id":"12004","GHI_STN_ID":"narm_barma","CWC_SITE_N":"Barmanghat","RIV_BASIN":"Narmada","CWC_RIVER":"Narmada"}},{"type":"Feature","geometry":{"type":"Point","coordinates":[79.3397,22.9278]},"properties":{"gauge_id":"12006","GHI_STN_ID":"narm_belkh","CWC_SITE_N":"Belkheri","RIV_BASIN":"Narmada","CWC_RIVER":"Narmada/Sher"}},{"type":"Feature","geometry":{"type":"Point","coordinates":[73.4661,22.05]},"properties":{"gauge_id":"12009","GHI_STN_ID":"narm_chanw","CWC_SITE_N":"Chanwada","RIV_BASIN":"Narmada","CWC_RIVER":"Narmada/Orsang"}},{"type":"Feature","geometry":{"type":"Point","coordinates":[77.3081,22.4058]},"properties":{"gauge_id":"12012","GHI_STN_ID":"narm_chhid","CWC_SITE_N":"Chhidgaon","RIV_BASIN":"Narmada","CWC_RIVER":"Narmada/Ganjal"}},{"type":"Feature","geometry":{"type":"Point","coordinates":[74.8519,22.2056]},"properties":{"gauge_id":"12015","GHI_STN_ID":"narm_dhuls","CWC_SITE_N":"Dhulsar","RIV_BASIN":"Narmada","CWC_RIVER":"Narmada/Uri"}},{"type":"Feature","geometry":{"type":"Point","coordinates":[81.0761,22.9478]},"properties":{"gauge_id":"12016","GHI_STN_ID":"narm_dindo","CWC_SITE_N":"Dindori","RIV_BASIN":"Narmada","CWC_RIVER":"Narmada"}},{"type":"Feature","geometry":{"type":"Point","coordinates":[78.7908,22.9228]},"properties":{"gauge_id":"12018","GHI_STN_ID":"narm_gadar","CWC_SITE_N":"Gadarwara","RIV_BASIN":"Narmada","CWC_RIVER":"Narmada/Sakkar"}},{"type":"Feature","geometry":{"type":"Point","coordinates":[73.6544,21.8864]},"properties":{"gauge_id":"12020","GHI_STN_ID":"narm_garud","CWC_SITE_N":"Garudeshwar","RIV_BASIN":"Narmada","CWC_RIVER":"Narmada"}},{"type":"Feature","geometry":{"type":"Point","coordinates":[76.9936,22.4917]},"properties":{"gauge_id":"12025","GHI_STN_ID":"narm_handi","CWC_SITE_N":"Handia","RIV_BASIN":"Narmada","CWC_RIVER":"Narmada"}},{"type":"Feature","geometry":{"type":"Point","coordinates":[77.7328,22.7561]},"properties":{"gauge_id":"12026","GHI_STN_ID":"narm_hosha","CWC_SITE_N":"Hoshangabad","RIV_BASIN":"Narmada","CWC_RIVER":"Narmada"}},{"type":"Feature","geometry":{"type":"Point","coordinates":[75.6842,22.1014]},"properties":{"gauge_id":"12029","GHI_STN_ID":"narm_kogao","CWC_SITE_N":"Kogaon","RIV_BASIN":"Narmada","CWC_RIVER":"Narmada/Kundi"}},{"type":"Feature","geometry":{"type":"Point","coordinates":[75.6608,22.1683]},"properties":{"gauge_id":"12035","GHI_STN_ID":"narm_mand2","CWC_SITE_N":"Mandleshwar","RIV_BASIN":"Narmada","CWC_RIVER":"Narmada"}},{"type":"Feature","geometry":{"type":"Point","coordinates":[80.5131,22.7358]},"properties":{"gauge_id":"12036","GHI_STN_ID":"narm_manot","CWC_SITE_N":"Manot","RIV_BASIN":"Narmada","CWC_RIVER":"Narmada"}},{"type":"Feature","geometry":{"type":"Point","coordinates":[80.6233,22.7658]},"properties":{"gauge_id":"12038","GHI_STN_ID":"narm_mohga","CWC_SITE_N":"Mohgaoan","RIV_BASIN":"Narmada","CWC_RIVER":"Narmada/Burhner"}},{"type":"Feature","geometry":{"type":"Point","coordinates":[79.6619,23.3111]},"properties":{"gauge_id":"12043","GHI_STN_ID":"narm_patan","CWC_SITE_N":"Patan","RIV_BASIN":"Narmada","CWC_RIVER":"Narmada/Hiran"}},{"type":"Feature","geometry":{"type":"Point","coordinates":[74.7447,21.9433]},"properties":{"gauge_id":"12044","GHI_STN_ID":"narm_patix","CWC_SITE_N":"Pati","RIV_BASIN":"Narmada","CWC_RIVER":"Narmada/Goi"}},{"type":"Feature","geometry":{"type":"Point","coordinates":[78.3475,22.9158]},"properties":{"gauge_id":"12046","GHI_STN_ID":"narm_sandi","CWC_SITE_N":"Sandia","RIV_BASIN":"Narmada","CWC_RIVER":"Narmada"}},{"type":"Feature","geometry":{"type":"Point","coordinates":[76.235,21.2994]},"properties":{"gauge_id":"13004","GHI_STN_ID":"tapi_burha","CWC_SITE_N":"Burhanpur","RIV_BASIN":"Tapi","CWC_RIVER":"Tapi"}},{"type":"Feature","geometry":{"type":"Point","coordinates":[76.7572,21.5131]},"properties":{"gauge_id":"13006","GHI_STN_ID":"tapi_dedta","CWC_SITE_N":"Dedtalai","RIV_BASIN":"Tapi","CWC_RIVER":"Tapi"}},{"type":"Feature","geometry":{"type":"Point","coordinates":[73.0253,21.2972]},"properties":{"gauge_id":"13007","GHI_STN_ID":"tapi_ghala","CWC_SITE_N":"Ghala","RIV_BASIN":"Tapi","CWC_RIVER":"Tapi"}},{"type":"Feature","geometry":{"type":"Point","coordinates":[74.8092,21.2947]},"properties":{"gauge_id":"13008","GHI_STN_ID":"tapi_gidha","CWC_SITE_N":"Gidhade","RIV_BASIN":"Tapi","CWC_RIVER":"Tapi"}},{"type":"Feature","geometry":{"type":"Point","coordinates":[76.9914,20.8742]},"properties":{"gauge_id":"13010","GHI_STN_ID":"tapi_gopal","CWC_SITE_N":"Gopalkheda","RIV_BASIN":"Tapi","CWC_RIVER":"Tapi/Purna"}},{"type":"Feature","geometry":{"type":"Point","coordinates":[77.3606,20.8475]},"properties":{"gauge_id":"13012","GHI_STN_ID":"tapi_lakhp","CWC_SITE_N":"Lakhpuri","RIV_BASIN":"Tapi","CWC_RIVER":"Tapi/Purna"}},{"type":"Feature","geometry":{"type":"Point","coordinates":[74.7133,20.9094]},"properties":{"gauge_id":"13013","GHI_STN_ID":"tapi_moran","CWC_SITE_N":"Morane","RIV_BASIN":"Tapi","CWC_RIVER":"Tapi/Panjhra"}},{"type":"Feature","geometry":{"type":"Point","coordinates":[74.5272,21.4283]},"properties":{"gauge_id":"13016","GHI_STN_ID":"tapi_saran","CWC_SITE_N":"Sarangkheda","RIV_BASIN":"Tapi","CWC_RIVER":"Tapi"}},{"type":"Feature","geometry":{"type":"Point","coordinates":[75.2408,21.1481]},"properties":{"gauge_id":"13017","GHI_STN_ID":"tapi_savkh","CWC_SITE_N":"Savkheda","RIV_BASIN":"Tapi","CWC_RIVER":"Tapi"}},{"type":"Feature","geometry":{"type":"Point","coordinates":[76.4756,20.9358]},"properties":{"gauge_id":"13025","GHI_STN_ID":"tapi_yerli","CWC_SITE_N":"Yerli","RIV_BASIN":"Tapi","CWC_RIVER":"Tapi/Purna"}},{"type":"Feature","geometry":{"type":"Point","coordinates":[73.2544,19.1622]},"properties":{"gauge_id":"14001","GHI_STN_ID":"wfrn_badla","CWC_SITE_N":"Badlapur","RIV_BASIN":"WFRN","CWC_RIVER":"Ulhas"}},{"type":"Feature","geometry":{"type":"Point","coordinates":[72.9306,19.7125]},"properties":{"gauge_id":"14003","GHI_STN_ID":"wfrn_durve","CWC_SITE_N":"Durvesh","RIV_BASIN":"WFRN","CWC_RIVER":"Vaitarna"}},{"type":"Feature","geometry":{"type":"Point","coordinates":[72.9836,20.8569]},"properties":{"gauge_id":"14004","GHI_STN_ID":"wfrn_gadat","CWC_SITE_N":"Gadat","RIV_BASIN":"WFRN","CWC_RIVER":"Ambika"}},{"type":"Feature","geometry":{"type":"Point","coordinates":[74.1,15.4711]},"properties":{"gauge_id":"14005","GHI_STN_ID":"wfrn_ganje","CWC_SITE_N":"Ganjem","RIV_BASIN":"WFRN","CWC_RIVER":"Mandovi/Khadepar"}},{"type":"Feature","geometry":{"type":"Point","coordinates":[73.1394,21.0156]},"properties":{"gauge_id":"14008","GHI_STN_ID":"wfrn_mahuw","CWC_SITE_N":"Mahuwa","RIV_BASIN":"WFRN","CWC_RIVER":"Purna"}},{"type":"Feature","geometry":{"type":"Point","coordinates":[73.2833,18.2317]},"properties":{"gauge_id":"14009","GHI_STN_ID":"wfrn_manga","CWC_SITE_N":"Mangaon (Seasonal)","RIV_BASIN":"WFRN","CWC_RIVER":"Savitri/Kal"}},{"type":"Feature","geometry":{"type":"Point","coordinates":[73.1564,18.5192]},"properties":{"gauge_id":"14011","GHI_STN_ID":"wfrn_nagot","CWC_SITE_N":"Nagothane","RIV_BASIN":"WFRN","CWC_RIVER":"Amba"}},{"type":"Feature","geometry":{"type":"Point","coordinates":[73.2811,20.2033]},"properties":{"gauge_id":"14012","GHI_STN_ID":"wfrn_nanip","CWC_SITE_N":"Nanipalson","RIV_BASIN":"WFRN","CWC_RIVER":"Damanganga"}},{"type":"Feature","geometry":{"type":"Point","coordinates":[73.2647,20.1111]},"properties":{"gauge_id":"14014","GHI_STN_ID":"wfrn_ozerk","CWC_SITE_N":"Ozerkheda","RIV_BASIN":"WFRN","CWC_RIVER":"Wagh/Damanganga"}},{"type":"Feature","geometry":{"type":"Point","coordinates":[73.1108,18.7367]},"properties":{"gauge_id":"14015","GHI_STN_ID":"wfrn_penxx","CWC_SITE_N":"Pen","RIV_BASIN":"WFRN","CWC_RIVER":"Bhogeswari"}},{"type":"Feature","geometry":{"type":"Point","coordinates":[74.9539,12.9289]},"properties":{"gauge_id":"15001","GHI_STN_ID":"wfrs_addoo","CWC_SITE_N":"Addoor","RIV_BASIN":"WFRS","CWC_RIVER":"Gurupur"}},{"type":"Feature","geometry":{"type":"Point","coordinates":[76.9461,10.6303]},"properties":{"gauge_id":"15003","GHI_STN_ID":"wfrs_ambar","CWC_SITE_N":"Ambarampalayam","RIV_BASIN":"WFRS","CWC_RIVER":"Bharathapuzha/Kannadipuzha/Aliyar"}},{"type":"Feature","geometry":{"type":"Point","coordinates":[76.3153,10.2814]},"properties":{"gauge_id":"15005","GHI_STN_ID":"wfrs_arang","CWC_SITE_N":"Arangaly","RIV_BASIN":"WFRS","CWC_RIVER":"Periyar/Chalakudy"}},{"type":"Feature","geometry":{"type":"Point","coordinates":[74.88,13.5214]},"properties":{"gauge_id":"15006","GHI_STN_ID":"wfrs_avers","CWC_SITE_N":"Avershe","RIV_BASIN":"WFRS","CWC_RIVER":"Seetha"}},{"type":"Feature","geometry":{"type":"Point","coordinates":[76.85,8.715]},"properties":{"gauge_id":"15007","GHI_STN_ID":"wfrs_ayila","CWC_SITE_N":"Ayilam","RIV_BASIN":"WFRS","CWC_RIVER":"Vamanapuram"}},{"type":"Feature","geometry":{"type":"Point","coordinates":[75.0411,12.8808]},"properties":{"gauge_id":"15008","GHI_STN_ID":"wfrs_bantw","CWC_SITE_N":"Bantwal","RIV_BASIN":"WFRS","CWC_RIVER":"Nethravathi"}},{"type":"Feature","geometry":{"type":"Point","coordinates":[75.1472,12.4792]},"properties":{"gauge_id":"15009","GHI_STN_ID":"wfrs_erinj","CWC_SITE_N":"Erinjipuzha","RIV_BASIN":"WFRS","CWC_RIVER":"Payaswani"}},{"type":"Feature","geometry":{"type":"Point","coordinates":[74.8578,13.5817]},"properties":{"gauge_id":"15010","GHI_STN_ID":"wfrs_halad","CWC_SITE_N":"Halady","RIV_BASIN":"WFRS","CWC_RIVER":"Halady"}},{"type":"Feature","geometry":{"type":"Point","coordinates":[76.6322,9.9906]},"properties":{"gauge_id":"15011","GHI_STN_ID":"wfrs_kalam","CWC_SITE_N":"Kalampur","RIV_BASIN":"WFRS","CWC_RIVER":"Muvattupuzha/Kaliyar"}},{"type":"Feature","geometry":{"type":"Point","coordinates":[76.6503,9.4036]},"properties":{"gauge_id":"15012","GHI_STN_ID":"wfrs_kallo","CWC_SITE_N":"Kallooppara","RIV_BASIN":"WFRS","CWC_RIVER":"Pampa/Manimala"}},{"type":"Feature","geometry":{"type":"Point","coordinates":[76.0394,11.0569]},"properties":{"gauge_id":"15013","GHI_STN_ID":"wfrs_karat","CWC_SITE_N":"Karathodu","RIV_BASIN":"WFRS","CWC_RIVER":"Kadalundi"}},{"type":"Feature","geometry":{"type":"Point","coordinates":[76.6056,9.6756]},"properties":{"gauge_id":"15014","GHI_STN_ID":"wfrs_kidan","CWC_SITE_N":"Kidangoor","RIV_BASIN":"WFRS","CWC_RIVER":"Meenachil"}},{"type":"Feature","geometry":{"type":"Point","coordinates":[76.02,10.85]},"properties":{"gauge_id":"15016","GHI_STN_ID":"wfrs_kumbi","CWC_SITE_N":"Kumbidi","RIV_BASIN":"WFRS","CWC_RIVER":"Bharathapuzha"}},{"type":"Feature","geometry":{"type":"Point","coordinates":[76.0233,11.2394]},"properties":{"gauge_id":"15017","GHI_STN_ID":"wfrs_kuniy","CWC_SITE_N":"Kuniyil","RIV_BASIN":"WFRS","CWC_RIVER":"Chaliyar"}},{"type":"Feature","geometry":{"type":"Point","coordinates":[77.1856,8.3053]},"properties":{"gauge_id":"15018","GHI_STN_ID":"wfrs_kuzhi","CWC_SITE_N":"Kuzhithurai","RIV_BASIN":"WFRS","CWC_RIVER":"Thambraparni"}},{"type":"Feature","geometry":{"type":"Point","coordinates":[76.6631,9.3325]},"properties":{"gauge_id":"15019","GHI_STN_ID":"wfrs_malak","CWC_SITE_N":"Malakkara","RIV_BASIN":"WFRS","CWC_RIVER":"Pampa"}},{"type":"Feature","geometry":{"type":"Point","coordinates":[76.4861,10.7611]},"properties":{"gauge_id":"15020","GHI_STN_ID":"wfrs_manka","CWC_SITE_N":"Mankara","RIV_BASIN":"WFRS","CWC_RIVER":"Bharathapuzha"}},{"type":"Feature","geometry":{"type":"Point","coordinates":[76.5,10.1833]},"properties":{"gauge_id":"15021","GHI_STN_ID":"wfrs_neele","CWC_SITE_N":"Neeleswaram","RIV_BASIN":"WFRS","CWC_RIVER":"Periyar"}},{"type":"Feature","geometry":{"type":"Point","coordinates":[76.7611,9.0728]},"properties":{"gauge_id":"15022","GHI_STN_ID":"wfrs_patta","CWC_SITE_N":"Pattazhy","RIV_BASIN":"WFRS","CWC_RIVER":"Kallada"}},{"type":"Feature","geometry":{"type":"Point","coordinates":[75.5875,11.9814]},"properties":{"gauge_id":"15023","GHI_STN_ID":"wfrs_perum","CWC_SITE_N":"Perumannu","RIV_BASIN":"WFRS","CWC_RIVER":"Valapatnam"}},{"type":"Feature","geometry":{"type":"Point","coordinates":[76.1972,10.8992]},"properties":{"gauge_id":"15024","GHI_STN_ID":"wfrs_pulam","CWC_SITE_N":"Pulamanthole","RIV_BASIN":"WFRS","CWC_RIVER":"Bharathapuzha/Pulanthodu"}},{"type":"Feature","geometry":{"type":"Point","coordinates":[76.4667,9.845]},"properties":{"gauge_id":"15026","GHI_STN_ID":"wfrs_ramam","CWC_SITE_N":"Ramamangalam","RIV_BASIN":"WFRS","CWC_RIVER":"Muvattupuzha"}},{"type":"Feature","geometry":{"type":"Point","coordinates":[76.7147,9.2325]},"properties":{"gauge_id":"15030","GHI_STN_ID":"wfrs_thump","CWC_SITE_N":"Thumpamon","RIV_BASIN":"WFRS","CWC_RIVER":"Pamba/Achankovil"}},{"type":"Feature","geometry":{"type":"Point","coordinates":[77.0908,9.5733]},"properties":{"gauge_id":"15031","GHI_STN_ID":"wfrs_vandi","CWC_SITE_N":"Vandiperiyar","RIV_BASIN":"WFRS","CWC_RIVER":"Periyar"}},{"type":"Feature","geometry":{"type":"Point","coordinates":[74.9806,13.2942]},"properties":{"gauge_id":"15032","GHI_STN_ID":"wfrs_yenne","CWC_SITE_N":"Yennehole","RIV_BASIN":"WFRS","CWC_RIVER":"Swarna"}},{"type":"Feature","geometry":{"type":"Point","coordinates":[82.9953,17.7]},"properties":{"gauge_id":"16001","GHI_STN_ID":"efrn_anaka","CWC_SITE_N":"Anakapalle","RIV_BASIN":"EFRN","CWC_RIVER":"Sarada"}},{"type":"Feature","geometry":{"type":"Point","coordinates":[83.8056,19.0833]},"properties":{"gauge_id":"16004","GHI_STN_ID":"efrn_gunup","CWC_SITE_N":"Gunupur","RIV_BASIN":"EFRN","CWC_RIVER":"Vamsadhara"}},{"type":"Feature","geometry":{"type":"Point","coordinates":[83.8731,18.8483]},"properties":{"gauge_id":"16007","GHI_STN_ID":"efrn_kashi","CWC_SITE_N":"Kashinagar","RIV_BASIN":"EFRN","CWC_RIVER":"Vamsadhara"}},{"type":"Feature","geometry":{"type":"Point","coordinates":[84.8833,19.5167]},"properties":{"gauge_id":"16012","GHI_STN_ID":"efrn_purus","CWC_SITE_N":"Purushottampur","RIV_BASIN":"EFRN","CWC_RIVER":"Rushikulya"}},{"type":"Feature","geometry":{"type":"Point","coordinates":[83.8842,18.3133]},"properties":{"gauge_id":"16014","GHI_STN_ID":"efrn_srika","CWC_SITE_N":"Srikakulam","RIV_BASIN":"EFRN","CWC_RIVER":"Nagavali"}},{"type":"Feature","geometry":{"type":"Point","coordinates":[77.5117,9.9256]},"properties":{"gauge_id":"17001","GHI_STN_ID":"efrs_ambas","CWC_SITE_N":"Ambasamudram","RIV_BASIN":"EFRS","CWC_RIVER":"Vaigai"}},{"type":"Feature","geometry":{"type":"Point","coordinates":[78.5394,12.6842]},"properties":{"gauge_id":"17003","GHI_STN_ID":"efrs_avara","CWC_SITE_N":"Avarankuppam","RIV_BASIN":"EFRS","CWC_RIVER":"Palar"}},{"type":"Feature","geometry":{"type":"Point","coordinates":[79.9472,12.65]},"properties":{"gauge_id":"17005","GHI_STN_ID":"efrs_cheng","CWC_SITE_N":"Chengalpet","RIV_BASIN":"EFRS","CWC_RIVER":"Palar"}},{"type":"Feature","geometry":{"type":"Point","coordinates":[78.1386,12.555]},"properties":{"gauge_id":"17006","GHI_STN_ID":"efrs_gumma","CWC_SITE_N":"Gummanur","RIV_BASIN":"EFRS","CWC_RIVER":"Ponnaiyar"}},{"type":"Feature","geometry":{"type":"Point","coordinates":[77.9903,9.3239]},"properties":{"gauge_id":"17007","GHI_STN_ID":"efrs_irruk","CWC_SITE_N":"Irrukkankudi","RIV_BASIN":"EFRS","CWC_RIVER":"VVaigai/Vaippar"}},{"type":"Feature","geometry":{"type":"Point","coordinates":[79.4722,11.4222]},"properties":{"gauge_id":"17009","GHI_STN_ID":"efrs_kudal","CWC_SITE_N":"Kudalaiyathur","RIV_BASIN":"EFRS","CWC_RIVER":"Vellar"}},{"type":"Feature","geometry":{"type":"Point","coordinates":[77.835,8.7144]},"properties":{"gauge_id":"17011","GHI_STN_ID":"efrs_murap","CWC_SITE_N":"Murappanadu","RIV_BASIN":"EFRS","CWC_RIVER":"Tambraparni"}},{"type":"Feature","geometry":{"type":"Point","coordinates":[79.8972,13.9472]},"properties":{"gauge_id":"17012","GHI_STN_ID":"efrs_naidu","CWC_SITE_N":"Naidupet","RIV_BASIN":"EFRS","CWC_RIVER":"Swarnamukhi"}},{"type":"Feature","geometry":{"type":"Point","coordinates":[78.5861,9.5531]},"properties":{"gauge_id":"17015","GHI_STN_ID":"efrs_param","CWC_SITE_N":"Paramakudi","RIV_BASIN":"EFRS","CWC_RIVER":"Vaigai"}},{"type":"Feature","geometry":{"type":"Point","coordinates":[77.485,10.0011]},"properties":{"gauge_id":"17019","GHI_STN_ID":"efrs_theni","CWC_SITE_N":"Theni","RIV_BASIN":"EFRS","CWC_RIVER":"Vaigai/Suruliar"}},{"type":"Feature","geometry":{"type":"Point","coordinates":[78.9781,12.0658]},"properties":{"gauge_id":"17022","GHI_STN_ID":"efrs_vazha","CWC_SITE_N":"Vazhavachanur","RIV_BASIN":"EFRS","CWC_RIVER":"Ponnaiyar"}},{"type":"Feature","geometry":{"type":"Point","coordinates":[79.4594,11.8706]},"properties":{"gauge_id":"17024","GHI_STN_ID":"efrs_villu","CWC_SITE_N":"Villupuram","RIV_BASIN":"EFRS","CWC_RIVER":"Ponnaiyar"}}]}